NORAD_CAT_ID,OBJECT_NAME,OBJECT_TYPE,EPOCH,MEAN_MOTION,ECCENTRICITY,INCLINATION,RA_OF_ASC_NODE,ARG_OF_PERICENTER,MEAN_ANOMALY,BSTAR,MEAN_MOTION_DOT,MEAN_MOTION_DDOT,TLE_LINE0,TLE_LINE1,TLE_LINE2,SEMIMAJOR_AXIS,PERIOD,APOGEE,PERIGEE,DECAYED
51118.0,STARLINK-3394,PAYLOAD,2022-08-02 19:39:12,15.08837663,0.0001943999999999,53.2176,71.796,59.1499,300.9684,3.1773e-05,2.18e-06,0.0,0 STARLINK-3394,1 51118U 22005Q   22214.81889365  .00000218  00000-0  31773-4 0  9990,2 51118  53.2176  71.7960 0001944  59.1499 300.9684 15.08837663 30377,6917.888000000001,95.438,541.097,538.408,0.0
51118.0,STARLINK-3394,PAYLOAD,2022-08-03 02:00:44,15.08838899,0.0001952,53.2176,70.6065,58.8757,301.2427,2.6023e-05,1.26e-06,0.0,0 STARLINK-3394,1 51118U 22005Q   22215.08385312  .00000126  00000-0  26023-4 0  9993,2 51118  53.2176  70.6065 0001952  58.8757 301.2427 15.08838899 30419,6917.884,95.438,541.099,538.398,0.0
51118.0,STARLINK-3394,PAYLOAD,2022-08-03 16:19:20,15.08742263,0.000264,53.2229,67.9331,80.9697,279.1593,-0.0010969,-0.00017657,0.0,0 STARLINK-3394,1 51118U 22005Q   22215.68009965 -.00017657  00000-0 -10969-2 0  9995,2 51118  53.2229  67.9331 0002640  80.9697 279.1593 15.08742263 30503,6918.179,95.444,541.871,538.2180000000002,0.0
51118.0,STARLINK-3394,PAYLOAD,2022-08-04 01:51:31,15.08848975,0.0001853,53.2183,66.1459,57.87600000000001,302.2412,5.098e-05,5.23e-06,0.0,0 STARLINK-3394,1 51118U 22005Q   22216.07744308  .00000523  00000-0  50980-4 0  9997,2 51118  53.2183  66.1459 0001853  57.8760 302.2412 15.08848975 31677,6917.853,95.437,541.0,538.436,0.0
51118.0,STARLINK-3394,PAYLOAD,2022-08-04 16:10:00,15.08832083,0.0001764999999999,53.2178,63.4695,71.8773,288.2411,1.2456e-05,-9.000000000000002e-07,0.0,0 STARLINK-3394,1 51118U 22005Q   22216.67361522 -.00000090  00000-0  12456-4 0  9992,2 51118  53.2178  63.4695 0001765  71.8773 288.2411 15.08832083 30657,6917.905,95.438,540.991,538.549,0.0
51118.0,STARLINK-3394,PAYLOAD,2022-08-05 12:50:01,15.08836851,0.0001579,53.2195,59.6044,56.872,303.2424,6.4685e-05,7.42e-06,0.0,0 STARLINK-3394,1 51118U 22005Q   22217.53473391  .00000742  00000-0  64685-4 0  9990,2 51118  53.2195  59.6044 0001579  56.8720 303.2424 15.08836851 30782,6917.89,95.438,540.847,538.663,0.0
51118.0,STARLINK-3394,PAYLOAD,2022-08-05 16:00:47,15.08841752,0.000195,53.2178,59.0101,61.5245,298.5943,3.6642e-05,2.95e-06,0.0,0 STARLINK-3394,1 51118U 22005Q   22217.66721258  .00000295  00000-0  36642-4 0  9997,2 51118  53.2178  59.0101 0001950  61.5245 298.5943 15.08841752 31913,6917.875,95.437,541.089,538.391,0.0
51118.0,STARLINK-3394,PAYLOAD,2022-08-06 12:40:47,15.08840545,0.0001940999999999,53.218,55.1444,61.0902,299.0285,0.00014459,2.014e-05,0.0,0 STARLINK-3394,1 51118U 22005Q   22218.52833133  .00002014  00000-0  14459-3 0  9991,2 51118  53.2180  55.1444 0001941  61.0902 299.0285 15.08840545 30933,6917.879,95.438,541.086,538.401,0.0
51118.0,STARLINK-3394,PAYLOAD,2022-08-06 17:26:57,15.0883422,0.0001879,53.2181,54.252,61.2719,298.8462,9.017e-05,1.147e-05,0.0,0 STARLINK-3394,1 51118U 22005Q   22218.72705740  .00001147  00000-0  90170-4 0  9996,2 51118  53.2181  54.2520 0001879  61.2719 298.8462 15.08834220 30967,6917.898,95.438,541.063,538.4630000000002,0.0
51118.0,STARLINK-3394,PAYLOAD,2022-08-07 12:31:35,15.08842166,0.0001861,53.2182,50.6832,60.6691,299.4487,9.4362e-05,1.214e-05,0.0,0 STARLINK-3394,1 51118U 22005Q   22219.52193535  .00001214  00000-0  94362-4 0  9990,2 51118  53.2182  50.6832 0001861  60.6691 299.4487 15.08842166 31083,6917.874,95.437,541.026,538.451,0.0
51118.0,STARLINK-3394,PAYLOAD,2022-08-07 18:53:07,15.08846692,0.0001851999999999,53.2182,49.4941,61.5295,298.5884,0.00011325,1.515e-05,0.0,0 STARLINK-3394,1 51118U 22005Q   22219.78689205  .00001515  00000-0  11325-3 0  9993,2 51118  53.2182  49.4941 0001852  61.5295 298.5884 15.08846692 32237,6917.86,95.437,541.006,538.444,0.0
51118.0,STARLINK-3394,PAYLOAD,2022-08-07 20:28:30,15.08846797,0.0001836,53.2175,49.1964,61.1244,298.9933,0.00014927,2.089e-05,0.0,0 STARLINK-3394,1 51118U 22005Q   22219.85313168  .00002089  00000-0  14927-3 0  9991,2 51118  53.2175  49.1964 0001836  61.1244 298.9933 15.08846797 31136,6917.86,95.437,540.995,538.4540000000002,0.0
51118.0,STARLINK-3394,PAYLOAD,2022-08-08 06:00:49,15.08853648,0.0001837,53.2175,47.4124,60.8613,299.2563,0.00025364,3.752e-05,0.0,0 STARLINK-3394,1 51118U 22005Q   22220.25056763  .00003752  00000-0  25364-3 0  9997,2 51118  53.2175  47.4124 0001837  60.8613 299.2563 15.08853648 31194,6917.839,95.437,540.974,538.433,0.0
51118.0,STARLINK-3394,PAYLOAD,2022-08-08 15:33:08,15.08844848,0.0001784,53.218,45.6285,66.5464,293.5715,0.0002227,3.258e-05,0.0,0 STARLINK-3394,1 51118U 22005Q   22220.64801107  .00003258  00000-0  22270-3 0  9994,2 51118  53.2180  45.6285 0001784  66.5464 293.5715 15.08844848 31251,6917.866,95.437,540.965,538.496,0.0
51118.0,STARLINK-3394,PAYLOAD,2022-08-08 21:54:40,15.08844368,0.0001945,53.2175,44.4399,62.2515,297.8674,0.000184,2.642e-05,0.0,0 STARLINK-3394,1 51118U 22005Q   22220.91297108  .00002642  00000-0  18400-3 0  9990,2 51118  53.2175  44.4399 0001945  62.2515 297.8674 15.08844368 32403,6917.8669999999975,95.437,541.078,538.387,0.0
51118.0,STARLINK-3394,PAYLOAD,2022-08-09 12:13:08,15.08844921,0.0001695,53.2184,41.7624,68.258,291.8593,0.00010066,1.315e-05,0.0,0 STARLINK-3394,1 51118U 22005Q   22221.50912786  .00001315  00000-0  10066-3 0  9998,2 51118  53.2184  41.7624 0001695  68.2580 291.8593 15.08844921 31389,6917.865,95.437,540.903,538.558,0.0
51118.0,STARLINK-3394,PAYLOAD,2022-08-09 18:34:42,15.08829035,0.0001847,53.2187,40.5736,63.49800000000001,296.6202,-9.2117e-05,-1.753e-05,0.0,0 STARLINK-3394,1 51118U 22005Q   22221.77410153 -.00001753  00000-0 -92117-4 0  9994,2 51118  53.2187  40.5736 0001847  63.4980 296.6202 15.08829035 32530,6917.9140000000025,95.438,541.057,538.501,0.0
51118.0,STARLINK-3394,PAYLOAD,2022-08-09 20:10:05,15.08829017,0.0001841999999999,53.2186,40.2761,63.2124,296.9057,-9.1392e-05,-1.742e-05,0.0,0 STARLINK-3394,1 51118U 22005Q   22221.84034174 -.00001742  00000-0 -91392-4 0  9999,2 51118  53.2186  40.2761 0001842  63.2124 296.9057 15.08829017 31436,6917.9140000000025,95.438,541.053,538.505,0.0
51118.0,STARLINK-3394,PAYLOAD,2022-08-10 12:03:56,15.088325199999998,0.0001717,53.2187,37.3015,65.1705,294.9466,-4.0951e-05,-9.4e-06,0.0,0 STARLINK-3394,1 51118U 22005Q   22222.50274008 -.00000940  00000-0 -40951-4 0  9999,2 51118  53.2187  37.3015 0001717  65.1705 294.9466 15.08832520 31539,6917.903,95.438,540.956,538.58,0.0
51118.0,STARLINK-3394,PAYLOAD,2022-08-10 13:39:19,15.08833262,0.0001723,53.2187,37.0043,65.1771,294.94,-3.3601e-05,-8.23e-06,0.0,0 STARLINK-3394,1 51118U 22005Q   22222.56897967 -.00000823  00000-0 -33601-4 0  9994,2 51118  53.2187  37.0043 0001723  65.1771 294.9400 15.08833262 31540,6917.901,95.438,540.9580000000002,538.5740000000002,0.0
51118.0,STARLINK-3394,PAYLOAD,2022-08-11 11:54:43,15.08837953,0.0001754999999999,53.2182,32.8412,61.1052,299.0116,0.00010274,1.347e-05,0.0,0 STARLINK-3394,1 51118U 22005Q   22223.49633528  .00001347  00000-0  10274-3 0  9998,2 51118  53.2182  32.8412 0001755  61.1052 299.0116 15.08837953 31687,6917.887,95.438,540.966,538.538,0.0
51118.0,STARLINK-3394,PAYLOAD,2022-08-11 18:16:15,15.088402,0.0001704,53.218,31.6518,63.8601,296.2567,0.00013448,1.853e-05,0.0,0 STARLINK-3394,1 51118U 22005Q   22223.76129435  .00001853  00000-0  13448-3 0  9993,2 51118  53.2180  31.6518 0001704  63.8601 296.2567 15.08840200 32838,6917.88,95.438,540.924,538.566,0.0
51118.0,STARLINK-3394,PAYLOAD,2022-08-11 23:02:26,15.08829686,0.0001727,53.2184,30.7601,59.1654,300.9508,5.491e-05,5.86e-06,0.0,0 STARLINK-3394,1 51118U 22005Q   22223.96002439  .00000586  00000-0  54910-4 0  9991,2 51118  53.2184  30.7601 0001727  59.1654 300.9508 15.08829686 32862,6917.9119999999975,95.438,540.972,538.582,0.0
51118.0,STARLINK-3394,PAYLOAD,2022-08-12 11:45:31,15.08836879,0.0001756,53.2173,28.3807,59.4728,300.6438,8.861200000000001e-05,1.122e-05,0.0,0 STARLINK-3394,1 51118U 22005Q   22224.48994222  .00001122  00000-0  88612-4 0  9992,2 51118  53.2173  28.3807 0001756  59.4728 300.6438 15.08836879 31835,6917.89,95.438,540.97,538.54,0.0
51118.0,STARLINK-3394,PAYLOAD,2022-08-12 16:31:40,15.08841732,0.0001726,53.2173,27.4888,59.8016,300.3147,0.00015015,2.102e-05,0.0,0 STARLINK-3394,1 51118U 22005Q   22224.68866010  .00002102  00000-0  15015-3 0  9992,2 51118  53.2173  27.4888 0001726  59.8016 300.3147 15.08841732 32979,6917.875,95.437,540.934,538.5459999999998,0.0
51118.0,STARLINK-3394,PAYLOAD,2022-08-12 19:42:26,15.08843806,0.0001733999999999,53.2173,26.894,59.6399,300.4765,0.00017566,2.509e-05,0.0,0 STARLINK-3394,1 51118U 22005Q   22224.82113934  .00002509  00000-0  17566-3 0  9992,2 51118  53.2173  26.8940 0001734  59.6399 300.4765 15.08843806 31882,6917.869000000002,95.437,540.933,538.534,0.0
51118.0,STARLINK-3394,PAYLOAD,2022-08-13 13:11:41,15.08836559,0.0001736,53.2177,23.6234,62.7924,297.3245,-3.607e-05,-8.62e-06,0.0,0 STARLINK-3394,1 51118U 22005Q   22225.54978160 -.00000862  00000-0 -36070-4 0  9996,2 51118  53.2177  23.6234 0001736  62.7924 297.3245 15.08836559 31994,6917.891,95.438,540.957,538.555,0.0
51118.0,STARLINK-3394,PAYLOAD,2022-08-13 21:08:36,15.08838645,0.0001763,53.218,22.1364,60.4137,299.7031,4.196e-05,3.8e-06,0.0,0 STARLINK-3394,1 51118U 22005Q   22225.88098205  .00000380  00000-0  41960-4 0  9993,2 51118  53.2180  22.1364 0001763  60.4137 299.7031 15.08838645 32041,6917.885,95.438,540.969,538.53,0.0
51118.0,STARLINK-3394,PAYLOAD,2022-08-14 11:27:05,15.08835693,0.0001653,53.2181,19.4599,59.508,300.6075,2.4591e-05,1.03e-06,0.0,0 STARLINK-3394,1 51118U 22005Q   22226.47714459  .00000103  00000-0  24591-4 0  9999,2 51118  53.2181  19.4599 0001653  59.5080 300.6075 15.08835693 32135,6917.894,95.438,540.9019999999998,538.615,0.0
